[{"OBJECT_NAME":"STARLINK-5558","OBJECT_ID":"2023-021D","EPOCH":"2026-03-09T17:03:35.266176","MEAN_MOTION":14.98328248,"ECCENTRICITY":0.00032133,"INCLINATION":70.0002,"RA_OF_ASC_NODE":204.3096,"ARG_OF_PERICENTER":267.5398,"MEAN_ANOMALY":92.5393,"EPHEMERIS_TYPE":0,"CLASSIFICATION_TYPE":"U","NORAD_CAT_ID":55631,"ELEMENT_SET_NO":999,"REV_AT_EPOCH":16830,"BSTAR":0.00011941915,"MEAN_MOTION_DOT":1.332e-5,"MEAN_MOTION_DDOT":0},{"OBJECT_NAME":"SPOT 1","OBJECT_ID":"1986-019A","EPOCH":"2026-03-09T18:07:50.597472","MEAN_MOTION":14.71225325,"ECCENTRICITY":0.01282848,"INCLINATION":98.6589,"RA_OF_ASC_NODE":355.6082,"ARG_OF_PERICENTER":216.6386,"MEAN_ANOMALY":142.5996,"EPHEMERIS_TYPE":0,"CLASSIFICATION_TYPE":"U","NORAD_CAT_ID":16613,"ELEMENT_SET_NO":999,"REV_AT_EPOCH":79637,"BSTAR":0.00023669966,"MEAN_MOTION_DOT":1.593e-5,"MEAN_MOTION_DDOT":0}]
